ONEWEB-0628             
1 55169U 23004AF  25333.66267375 -.00000252  00000+0 -73586-3 0  9995
2 55169  87.8955  30.2866 0001586 124.4318 235.6961 13.12441751141869
ONEWEB-0629             
1 55170U 23004AG  25333.62916838 -.00000264  00000+0 -71421-3 0  9997
2 55170  87.9121  45.5604 0001930 111.6429 248.4908 13.17647711141301
ONEWEB-0631             
1 55171U 23004AH  25333.54593969  .00000036  00000+0  59254-4 0  9991
2 55171  87.9199  15.0849 0001481  79.8917 280.2382 13.18684939143360
ONEWEB-0709             
1 55172U 23004AJ  25333.23051039  .00000567  00000+0  15638-2 0  9990
2 55172  87.8862  60.9059 0001896  75.0285 285.1053 13.11419455139664
ONEWEB-0710             
1 55173U 23004AK  25333.71945926 -.00000004  00000+0 -42669-4 0  9995
2 55173  87.9124  45.5369 0001590 104.5538 255.5770 13.17647991141316
ONEWEB-0711             
1 55174U 23004AL  25333.73574328 -.00000551  00000+0 -15918-2 0  9994
2 55174  87.8871  60.7781 0001157 128.1618 231.9614 13.11418105139692
ONEWEB-0713             
1 55175U 23004AM  25333.67810134 -.00000112  00000+0 -35232-3 0  9991
2 55175  87.8863  60.7926 0001375 115.2967 244.8304 13.11422227139678
ONEWEB-0715             
1 55176U 23004AN  25333.74931670 -.00000269  00000+0 -79357-3 0  9998
2 55176  87.8867  60.7784 0001423  78.1379 281.9908 13.11418533139726
